start=new Date('2023-02-16T00:00:00.000Z').valueOf();
sats=[{"BSTAR":"0.00069298000000","EPHEMERIS_TYPE":"0","NORAD_CAT_ID":"51792","TIME_SYSTEM":"UTC","MEAN_ANOMALY":"291.3548","REV_AT_EPOCH":"5524","OBJECT_TYPE":"PAYLOAD","FILE":"3794944","MEAN_MOTION_DOT":"0.00010765","GP_ID":"225525957","ECCENTRICITY":"0.00017220","SEMIMAJOR_AXIS":"6917.810","ARG_OF_PERICENTER":"68.7628","TLE_LINE1":"1 51792U 22017AA  23047.03215881  .00010765  00000-0  69298-3 0  9996","SITE":"AFWTR","CENTER_NAME":"EARTH","MEAN_MOTION":"15.08862995","REF_FRAME":"TEME","RA_OF_ASC_NODE":"326.4833","OBJECT_NAME":"STARLINK-3626","CLASSIFICATION_TYPE":"U","TLE_LINE2":"2 51792  53.2157 326.4833 0001722  68.7628 291.3548 15.08862995 55248","PERIOD":"95.436","EPOCH":"2023-02-16T00:46:18.521184","MEAN_ELEMENT_THEORY":"SGP4","COUNTRY_CODE":"US","DECAY_DATE":null,"APOAPSIS":"540.866","RCS_SIZE":"LARGE","PERIAPSIS":"538.484","INCLINATION":"53.2157","ELEMENT_SET_NO":"999","LAUNCH_DATE":"2022-02-25","OBJECT_ID":"2022-017AA","MEAN_MOTION_DDOT":"0.0000000000000"},{"LAUNCH_DATE":"2022-02-25","ELEMENT_SET_NO":"999","MEAN_MOTION_DDOT":"0.0000000000000","OBJECT_ID":"2022-017AB","APOAPSIS":"540.498","RCS_SIZE":"MEDIUM","INCLINATION":"53.2149","PERIAPSIS":"538.918","MEAN_ELEMENT_THEORY":"SGP4","DECAY_DATE":null,"COUNTRY_CODE":"US","OBJECT_NAME":"STARLINK-3633","CLASSIFICATION_TYPE":"U","TLE_LINE2":"2 51793  53.2149 326.7174 0001142  77.0865 283.0254 15.08852201 55233","PERIOD":"95.437","EPOCH":"2023-02-15T23:32:06.547776","MEAN_MOTION":"15.08852201","RA_OF_ASC_NODE":"326.7174","REF_FRAME":"TEME","TLE_LINE1":"1 51793U 22017AB  23046.98063134  .00002303  00000-0  16268-3 0  9990","SEMIMAJOR_AXIS":"6917.843","ARG_OF_PERICENTER":"77.0865","CENTER_NAME":"EARTH","SITE":"AFWTR","GP_ID":"225525932","ECCENTRICITY":"0.00011420","MEAN_MOTION_DOT":"0.00002303","EPHEMERIS_TYPE":"0","NORAD_CAT_ID":"51793","MEAN_ANOMALY":"283.0254","TIME_SYSTEM":"UTC","BSTAR":"0.00016268000000","OBJECT_TYPE":"PAYLOAD","FILE":"3794943","REV_AT_EPOCH":"5523"},{"REF_FRAME":"TEME","RA_OF_ASC_NODE":"327.7014","MEAN_MOTION":"15.08855645","SITE":"AFWTR","CENTER_NAME":"EARTH","ARG_OF_PERICENTER":"83.5824","SEMIMAJOR_AXIS":"6917.833","TLE_LINE1":"1 51794U 22017AC  23046.75983645  .00005239  00000-0  34685-3 0  9998","MEAN_MOTION_DOT":"0.00005239","ECCENTRICITY":"0.00011950","GP_ID":"225552826","REV_AT_EPOCH":"5515","FILE":"3795153","OBJECT_TYPE":"PAYLOAD","BSTAR":"0.00034685000000","NORAD_CAT_ID":"51794","EPHEMERIS_TYPE":"0","MEAN_ANOMALY":"276.5304","TIME_SYSTEM":"UTC","OBJECT_ID":"2022-017AC","MEAN_MOTION_DDOT":"0.0000000000000","ELEMENT_SET_NO":"999","LAUNCH_DATE":"2022-02-25","PERIAPSIS":"538.871","INCLINATION":"53.2168","RCS_SIZE":"LARGE","APOAPSIS":"540.524","COUNTRY_CODE":"US","DECAY_DATE":null,"MEAN_ELEMENT_THEORY":"SGP4","EPOCH":"2023-02-15T18:14:09.869280","PERIOD":"95.437","CLASSIFICATION_TYPE":"U","TLE_LINE2":"2 51794  53.2168 327.7014 0001195  83.5824 276.5304 15.08855645 55153","OBJECT_NAME":"STARLINK-3573"},{"TLE_LINE1":"1 51795U 22017AD  23046.89600141  .00002176  00000-0  15474-3 0  9993","SEMIMAJOR_AXIS":"6917.868","ARG_OF_PERICENTER":"68.7470","CENTER_NAME":"EARTH","SITE":"AFWTR","MEAN_MOTION":"15.08843898","RA_OF_ASC_NODE":"327.0897","REF_FRAME":"TEME","EPHEMERIS_TYPE":"0","NORAD_CAT_ID":"51795","MEAN_ANOMALY":"291.3723","TIME_SYSTEM":"UTC","BSTAR":"0.00015474000000","OBJECT_TYPE":"PAYLOAD","FILE":"3795153","REV_AT_EPOCH":"5517","GP_ID":"225553079","ECCENTRICITY":"0.00018790","MEAN_MOTION_DOT":"0.00002176","RCS_SIZE":"LARGE","APOAPSIS":"541.033","INCLINATION":"53.2158","PERIAPSIS":"538.434","LAUNCH_DATE":"2022-02-25","ELEMENT_SET_NO":"999","MEAN_MOTION_DDOT":"0.0000000000000","OBJECT_ID":"2022-017AD","OBJECT_NAME":"STARLINK-3586","CLASSIFICATION_TYPE":"U","TLE_LINE2":"2 51795  53.2158 327.0897 0001879  68.7470 291.3723 15.08843898 55175","PERIOD":"95.437","EPOCH":"2023-02-15T21:30:14.521824","MEAN_ELEMENT_THEORY":"SGP4","DECAY_DATE":null,"COUNTRY_CODE":"US"},{"OBJECT_ID":"2022-017AE","MEAN_MOTION_DDOT":"0.0000000000000","ELEMENT_SET_NO":"999","LAUNCH_DATE":"2022-02-25","PERIAPSIS":"538.955","INCLINATION":"53.2177","RCS_SIZE":"LARGE","APOAPSIS":"540.378","COUNTRY_CODE":"US","DECAY_DATE":null,"MEAN_ELEMENT_THEORY":"SGP4","EPOCH":"2023-02-15T11:36:43.068384","PERIOD":"95.436","CLASSIFICATION_TYPE":"U","TLE_LINE2":"2 51796  53.2177 328.9426 0001028  59.3769 300.7324 15.08865846 55100","OBJECT_NAME":"STARLINK-3630","REF_FRAME":"TEME","RA_OF_ASC_NODE":"328.9426","MEAN_MOTION":"15.08865846","SITE":"AFWTR","CENTER_NAME":"EARTH","ARG_OF_PERICENTER":"59.3769","SEMIMAJOR_AXIS":"6917.801","TLE_LINE1":"1 51796U 22017AE  23046.48383181  .00011826  00000-0  75935-3 0  9991","MEAN_MOTION_DOT":"0.00011826","GP_ID":"225496639","ECCENTRICITY":"0.00010280","REV_AT_EPOCH":"5510","FILE":"3793736","OBJECT_TYPE":"PAYLOAD","BSTAR":"0.00075935000000","EPHEMERIS_TYPE":"0","NORAD_CAT_ID":"51796","MEAN_ANOMALY":"300.7324","TIME_SYSTEM":"UTC"},{"MEAN_ELEMENT_THEORY":"SGP4","DECAY_DATE":null,"COUNTRY_CODE":"US","OBJECT_NAME":"STARLINK-3627","CLASSIFICATION_TYPE":"U","TLE_LINE2":"2 51797  53.2160 326.2305 0005442 152.4849 207.6434 15.14069721 55234","PERIOD":"95.108","EPOCH":"2023-02-15T21:07:00.288480","LAUNCH_DATE":"2022-02-25","ELEMENT_SET_NO":"999","MEAN_MOTION_DDOT":"0.0000000000000","OBJECT_ID":"2022-017AF","APOAPSIS":"527.562","RCS_SIZE":"LARGE","INCLINATION":"53.2160","PERIAPSIS":"520.050","GP_ID":"225552085","ECCENTRICITY":"0.00054420","MEAN_MOTION_DOT":"0.00103151","NORAD_CAT_ID":"51797","EPHEMERIS_TYPE":"0","MEAN_ANOMALY":"207.6434","TIME_SYSTEM":"UTC","BSTAR":"0.00554040000000","OBJECT_TYPE":"PAYLOAD","FILE":"3795153","REV_AT_EPOCH":"5523","MEAN_MOTION":"15.14069721","RA_OF_ASC_NODE":"326.2305","REF_FRAME":"TEME","TLE_LINE1":"1 51797U 22017AF  23046.87986445  .00103151  00000-0  55404-2 0  9998","SEMIMAJOR_AXIS":"6901.941","ARG_OF_PERICENTER":"152.4849","CENTER_NAME":"EARTH","SITE":"AFWTR"},{"OBJECT_NAME":"STARLINK-3634","CLASSIFICATION_TYPE":"U","TLE_LINE2":"2 51798  53.2182 328.9570 0001324  54.1923 305.9192 15.08856836 55156","PERIOD":"95.436","EPOCH":"2023-02-15T11:31:25.264992","MEAN_ELEMENT_THEORY":"SGP4","COUNTRY_CODE":"US","DECAY_DATE":null,"APOAPSIS":"540.610","RCS_SIZE":"LARGE","PERIAPSIS":"538.778","INCLINATION":"53.2182","ELEMENT_SET_NO":"999","LAUNCH_DATE":"2022-02-25","OBJECT_ID":"2022-017AG","MEAN_MOTION_DDOT":"0.0000000000000","BSTAR":"0.00039517000000","EPHEMERIS_TYPE":"0","NORAD_CAT_ID":"51798","TIME_SYSTEM":"UTC","MEAN_ANOMALY":"305.9192","REV_AT_EPOCH":"5515","OBJECT_TYPE":"PAYLOAD","FILE":"3793706","MEAN_MOTION_DOT":"0.00006010","ECCENTRICITY":"0.00013240","GP_ID":"225492833","SEMIMAJOR_AXIS":"6917.829","ARG_OF_PERICENTER":"54.1923","TLE_LINE1":"1 51798U 22017AG  23046.48015353  .00006010  00000-0  39517-3 0  9991","SITE":"AFWTR","CENTER_NAME":"EARTH","MEAN_MOTION":"15.08856836","REF_FRAME":"TEME","RA_OF_ASC_NODE":"328.9570"},{"INCLINATION":"53.2176","PERIAPSIS":"538.620","APOAPSIS":"540.746","RCS_SIZE":"LARGE","MEAN_MOTION_DDOT":"0.0000000000000","OBJECT_ID":"2022-017AH","LAUNCH_DATE":"2022-02-25","ELEMENT_SET_NO":"999","EPOCH":"2023-02-15T18:08:51.774720","PERIOD":"95.436","TLE_LINE2":"2 51799  53.2176 327.7276 0001537  70.7744 289.3415 15.08860376 55158","CLASSIFICATION_TYPE":"U","OBJECT_NAME":"STARLINK-3637","DECAY_DATE":null,"COUNTRY_CODE":"US","MEAN_ELEMENT_THEORY":"SGP4","CENTER_NAME":"EARTH","SITE":"AFWTR","TLE_LINE1":"1 51799U 22017AH  23046.75615480  .00007231  00000-0  47167-3 0  9995","ARG_OF_PERICENTER":"70.7744","SEMIMAJOR_AXIS":"6917.818","RA_OF_ASC_NODE":"327.7276","REF_FRAME":"TEME","MEAN_MOTION":"15.08860376","FILE":"3795153","OBJECT_TYPE":"PAYLOAD","REV_AT_EPOCH":"5515","EPHEMERIS_TYPE":"0","NORAD_CAT_ID":"51799","TIME_SYSTEM":"UTC","MEAN_ANOMALY":"289.3415","BSTAR":"0.00047167000000","ECCENTRICITY":"0.00015370","GP_ID":"225553573","MEAN_MOTION_DOT":"0.00007231"},{"TLE_LINE2":"2 51800  53.2171 327.8049 0000830  91.0826 269.0261 15.08889356 55194","CLASSIFICATION_TYPE":"U","OBJECT_NAME":"STARLINK-3600","EPOCH":"2023-02-15T17:43:46.171776","PERIOD":"95.434","MEAN_ELEMENT_THEORY":"SGP4","DECAY_DATE":null,"COUNTRY_CODE":"US","RCS_SIZE":"LARGE","APOAPSIS":"540.169","INCLINATION":"53.2171","PERIAPSIS":"539.020","LAUNCH_DATE":"2022-02-25","ELEMENT_SET_NO":"999","MEAN_MOTION_DDOT":"0.0000000000000","OBJECT_ID":"2022-017AJ","NORAD_CAT_ID":"51800","MEAN_ANOMALY":"269.0261","EPHEMERIS_TYPE":"0","TIME_SYSTEM":"UTC","BSTAR":"0.00272950000000","FILE":"3795153","OBJECT_TYPE":"PAYLOAD","REV_AT_EPOCH":"5519","GP_ID":"225553815","ECCENTRICITY":"0.00008300","MEAN_MOTION_DOT":"0.00043479","TLE_LINE1":"1 51800U 22017AJ  23046.73872884  .00043479  00000-0  27295-2 0  9992","ARG_OF_PERICENTER":"91.0826","SEMIMAJOR_AXIS":"6917.730","CENTER_NAME":"EARTH","SITE":"AFWTR","MEAN_MOTION":"15.08889356","RA_OF_ASC_NODE":"327.8049","REF_FRAME":"TEME"},{"RA_OF_ASC_NODE":"327.1389","REF_FRAME":"TEME","MEAN_MOTION":"15.08868322","CENTER_NAME":"EARTH","SITE":"AFWTR","TLE_LINE1":"1 51801U 22017AK  23046.88495519  .00028019  00000-0  17702-2 0  9990","ARG_OF_PERICENTER":"117.1367","SEMIMAJOR_AXIS":"6917.794","ECCENTRICITY":"0.00008710","GP_ID":"225552579","MEAN_MOTION_DOT":"0.00028019","FILE":"3795153","OBJECT_TYPE":"PAYLOAD","REV_AT_EPOCH":"5517","EPHEMERIS_TYPE":"0","NORAD_CAT_ID":"51801","MEAN_ANOMALY":"242.9714","TIME_SYSTEM":"UTC","BSTAR":"0.00177020000000","MEAN_MOTION_DDOT":"0.0000000000000","OBJECT_ID":"2022-017AK","LAUNCH_DATE":"2022-02-25","ELEMENT_SET_NO":"999","INCLINATION":"53.2183","PERIAPSIS":"539.056","APOAPSIS":"540.261","RCS_SIZE":"LARGE","DECAY_DATE":null,"COUNTRY_CODE":"US","MEAN_ELEMENT_THEORY":"SGP4","EPOCH":"2023-02-15T21:14:20.128416","PERIOD":"95.436","CLASSIFICATION_TYPE":"U","TLE_LINE2":"2 51801  53.2183 327.1389 0000871 117.1367 242.9714 15.08868322 55174","OBJECT_NAME":"STARLINK-3592"}];
